CCSDS_OMM_VERS = 2.0
CREATION_DATE  = 
ORIGINATOR     = 

OBJECT_NAME    = STARLINK-35437
OBJECT_ID      = 2025-268G
CENTER_NAME    = EARTH
REF_FRAME      = TEME
TIME_SYSTEM    = UTC
MEAN_ELEMENT_THEORY = SGP/SGP4

EPOCH          = 2025-12-10T04:00:01.998720
MEAN_MOTION    = 15.50629037
ECCENTRICITY   = .0001889
INCLINATION    = 43.0006
RA_OF_ASC_NODE = 136.2174
ARG_OF_PERICENTER = 270.8597
MEAN_ANOMALY   = 219.1812

EPHEMERIS_TYPE = 0
CLASSIFICATION_TYPE = U
NORAD_CAT_ID   = 66563
ELEMENT_SET_NO = 999
REV_AT_EPOCH   = 425
BSTAR          = -.31536E-2
MEAN_MOTION_DOT = -.181457E-2
MEAN_MOTION_DDOT = 0

CCSDS_OMM_VERS = 2.0
CREATION_DATE  = 
ORIGINATOR     = 

OBJECT_NAME    = STARLINK-35358
OBJECT_ID      = 2025-268H
CENTER_NAME    = EARTH
REF_FRAME      = TEME
TIME_SYSTEM    = UTC
MEAN_ELEMENT_THEORY = SGP/SGP4

EPOCH          = 2025-12-10T04:00:01.998720
MEAN_MOTION    = 15.50650662
ECCENTRICITY   = .0001927
INCLINATION    = 43.0004
RA_OF_ASC_NODE = 136.2130
ARG_OF_PERICENTER = 276.2537
MEAN_ANOMALY   = 215.6654

EPHEMERIS_TYPE = 0
CLASSIFICATION_TYPE = U
NORAD_CAT_ID   = 66564
ELEMENT_SET_NO = 999
REV_AT_EPOCH   = 420
BSTAR          = -.29561E-2
MEAN_MOTION_DOT = -.170484E-2
MEAN_MOTION_DDOT = 0

CCSDS_OMM_VERS = 2.0
CREATION_DATE  = 
ORIGINATOR     = 

OBJECT_NAME    = STARLINK-35893
OBJECT_ID      = 2025-268J
CENTER_NAME    = EARTH
REF_FRAME      = TEME
TIME_SYSTEM    = UTC
MEAN_ELEMENT_THEORY = SGP/SGP4

EPOCH          = 2025-12-10T04:00:01.998720
MEAN_MOTION    = 15.50662190
ECCENTRICITY   = .00019
INCLINATION    = 43.0004
RA_OF_ASC_NODE = 136.2076
ARG_OF_PERICENTER = 274.7741
MEAN_ANOMALY   = 219.0589

EPHEMERIS_TYPE = 0
CLASSIFICATION_TYPE = U
NORAD_CAT_ID   = 66565
ELEMENT_SET_NO = 999
REV_AT_EPOCH   = 425
BSTAR          = -.3322E-2
MEAN_MOTION_DOT = -.191127E-2
MEAN_MOTION_DDOT = 0

CCSDS_OMM_VERS = 2.0
CREATION_DATE  = 
ORIGINATOR     = 

OBJECT_NAME    = STARLINK-35871
OBJECT_ID      = 2025-268K
CENTER_NAME    = EARTH
REF_FRAME      = TEME
TIME_SYSTEM    = UTC
MEAN_ELEMENT_THEORY = SGP/SGP4

EPOCH          = 2025-12-10T04:00:01.998720
MEAN_MOTION    = 15.50665565
ECCENTRICITY   = .000179
INCLINATION    = 43.0004
RA_OF_ASC_NODE = 136.2026
ARG_OF_PERICENTER = 273.0409
MEAN_ANOMALY   = 222.7110

EPHEMERIS_TYPE = 0
CLASSIFICATION_TYPE = U
NORAD_CAT_ID   = 66566
ELEMENT_SET_NO = 999
REV_AT_EPOCH   = 425
BSTAR          = -.33907E-2
MEAN_MOTION_DOT = -.194996E-2
MEAN_MOTION_DDOT = 0

CCSDS_OMM_VERS = 2.0
CREATION_DATE  = 
ORIGINATOR     = 

OBJECT_NAME    = STARLINK-35825
OBJECT_ID      = 2025-268L
CENTER_NAME    = EARTH
REF_FRAME      = TEME
TIME_SYSTEM    = UTC
MEAN_ELEMENT_THEORY = SGP/SGP4

EPOCH          = 2025-12-10T04:00:01.998720
MEAN_MOTION    = 15.50661119
ECCENTRICITY   = .0001805
INCLINATION    = 43.0004
RA_OF_ASC_NODE = 136.1980
ARG_OF_PERICENTER = 274.5408
MEAN_ANOMALY   = 223.1294

EPHEMERIS_TYPE = 0
CLASSIFICATION_TYPE = U
NORAD_CAT_ID   = 66567
ELEMENT_SET_NO = 999
REV_AT_EPOCH   = 425
BSTAR          = -.32594E-2
MEAN_MOTION_DOT = -.187604E-2
MEAN_MOTION_DDOT = 0

CCSDS_OMM_VERS = 2.0
CREATION_DATE  = 
ORIGINATOR     = 

OBJECT_NAME    = STARLINK-35803
OBJECT_ID      = 2025-268M
CENTER_NAME    = EARTH
REF_FRAME      = TEME
TIME_SYSTEM    = UTC
MEAN_ELEMENT_THEORY = SGP/SGP4

EPOCH          = 2025-12-10T04:00:01.998720
MEAN_MOTION    = 15.50660386
ECCENTRICITY   = .0001715
INCLINATION    = 43.0004
RA_OF_ASC_NODE = 136.1929
ARG_OF_PERICENTER = 271.9784
MEAN_ANOMALY   = 227.6099

EPHEMERIS_TYPE = 0
CLASSIFICATION_TYPE = U
NORAD_CAT_ID   = 66568
ELEMENT_SET_NO = 999
REV_AT_EPOCH   = 425
BSTAR          = -.32547E-2
MEAN_MOTION_DOT = -.187332E-2
MEAN_MOTION_DDOT = 0

CCSDS_OMM_VERS = 2.0
CREATION_DATE  = 
ORIGINATOR     = 

OBJECT_NAME    = STARLINK-35835
OBJECT_ID      = 2025-268N
CENTER_NAME    = EARTH
REF_FRAME      = TEME
TIME_SYSTEM    = UTC
MEAN_ELEMENT_THEORY = SGP/SGP4

EPOCH          = 2025-12-10T04:00:01.998720
MEAN_MOTION    = 15.50659219
ECCENTRICITY   = .0001728
INCLINATION    = 43.0005
RA_OF_ASC_NODE = 136.1883
ARG_OF_PERICENTER = 273.7493
MEAN_ANOMALY   = 227.7531

EPHEMERIS_TYPE = 0
CLASSIFICATION_TYPE = U
NORAD_CAT_ID   = 66569
ELEMENT_SET_NO = 999
REV_AT_EPOCH   = 425
BSTAR          = -.31851E-2
MEAN_MOTION_DOT = -.183419E-2
MEAN_MOTION_DDOT = 0

CCSDS_OMM_VERS = 2.0
CREATION_DATE  = 
ORIGINATOR     = 

OBJECT_NAME    = STARLINK-35834
OBJECT_ID      = 2025-268P
CENTER_NAME    = EARTH
REF_FRAME      = TEME
TIME_SYSTEM    = UTC
MEAN_ELEMENT_THEORY = SGP/SGP4

EPOCH          = 2025-12-10T04:00:01.998720
MEAN_MOTION    = 15.50593035
ECCENTRICITY   = .0001676
INCLINATION    = 43.0007
RA_OF_ASC_NODE = 136.1831
ARG_OF_PERICENTER = 271.0116
MEAN_ANOMALY   = 232.4356

EPHEMERIS_TYPE = 0
CLASSIFICATION_TYPE = U
NORAD_CAT_ID   = 66570
ELEMENT_SET_NO = 999
REV_AT_EPOCH   = 425
BSTAR          = -.15525E-2
MEAN_MOTION_DOT = -.90419E-3
MEAN_MOTION_DDOT = 0

CCSDS_OMM_VERS = 2.0
CREATION_DATE  = 
ORIGINATOR     = 

OBJECT_NAME    = STARLINK-35836
OBJECT_ID      = 2025-268Q
CENTER_NAME    = EARTH
REF_FRAME      = TEME
TIME_SYSTEM    = UTC
MEAN_ELEMENT_THEORY = SGP/SGP4

EPOCH          = 2025-12-10T04:00:01.998720
MEAN_MOTION    = 15.50626387
ECCENTRICITY   = .0001812
INCLINATION    = 43.0008
RA_OF_ASC_NODE = 136.1785
ARG_OF_PERICENTER = 266.8439
MEAN_ANOMALY   = 238.5302

EPHEMERIS_TYPE = 0
CLASSIFICATION_TYPE = U
NORAD_CAT_ID   = 66571
ELEMENT_SET_NO = 999
REV_AT_EPOCH   = 425
BSTAR          = -.29751E-2
MEAN_MOTION_DOT = -.171408E-2
MEAN_MOTION_DDOT = 0

CCSDS_OMM_VERS = 2.0
CREATION_DATE  = 
ORIGINATOR     = 

OBJECT_NAME    = STARLINK-35870
OBJECT_ID      = 2025-268R
CENTER_NAME    = EARTH
REF_FRAME      = TEME
TIME_SYSTEM    = UTC
MEAN_ELEMENT_THEORY = SGP/SGP4

EPOCH          = 2025-12-10T04:00:01.998720
MEAN_MOTION    = 15.50640093
ECCENTRICITY   = .0001688
INCLINATION    = 43.0004
RA_OF_ASC_NODE = 136.1747
ARG_OF_PERICENTER = 273.2806
MEAN_ANOMALY   = 234.0240

EPHEMERIS_TYPE = 0
CLASSIFICATION_TYPE = U
NORAD_CAT_ID   = 66572
ELEMENT_SET_NO = 999
REV_AT_EPOCH   = 425
BSTAR          = -.37575E-2
MEAN_MOTION_DOT = -.215302E-2
MEAN_MOTION_DDOT = 0

CCSDS_OMM_VERS = 2.0
CREATION_DATE  = 
ORIGINATOR     = 

OBJECT_NAME    = STARLINK-35650
OBJECT_ID      = 2025-268S
CENTER_NAME    = EARTH
REF_FRAME      = TEME
TIME_SYSTEM    = UTC
MEAN_ELEMENT_THEORY = SGP/SGP4

EPOCH          = 2025-12-10T04:00:01.998720
MEAN_MOTION    = 15.50644192
ECCENTRICITY   = .0002404
INCLINATION    = 43.0008
RA_OF_ASC_NODE = 136.1684
ARG_OF_PERICENTER = 281.0736
MEAN_ANOMALY   = 228.1077

EPHEMERIS_TYPE = 0
CLASSIFICATION_TYPE = U
NORAD_CAT_ID   = 66573
ELEMENT_SET_NO = 999
REV_AT_EPOCH   = 425
BSTAR          = -.25786E-2
MEAN_MOTION_DOT = -.149132E-2
MEAN_MOTION_DDOT = 0

CCSDS_OMM_VERS = 2.0
CREATION_DATE  = 
ORIGINATOR     = 

OBJECT_NAME    = STARLINK-35812
OBJECT_ID      = 2025-268T
CENTER_NAME    = EARTH
REF_FRAME      = TEME
TIME_SYSTEM    = UTC
MEAN_ELEMENT_THEORY = SGP/SGP4

EPOCH          = 2025-12-10T04:00:01.998720
MEAN_MOTION    = 15.50637577
ECCENTRICITY   = .0002073
INCLINATION    = 43.0005
RA_OF_ASC_NODE = 136.1632
ARG_OF_PERICENTER = 272.6791
MEAN_ANOMALY   = 238.4122

EPHEMERIS_TYPE = 0
CLASSIFICATION_TYPE = U
NORAD_CAT_ID   = 66574
ELEMENT_SET_NO = 999
REV_AT_EPOCH   = 425
BSTAR          = -.25058E-2
MEAN_MOTION_DOT = -.144969E-2
MEAN_MOTION_DDOT = 0

