STARLINK-35437          
1 66563U 25268G   25344.16668980 -.00181457  00000+0 -31536-2 0  9998
2 66563  43.0006 136.2174 0001889 270.8597 219.1812 15.50629037  4252
STARLINK-35358          
1 66564U 25268H   25344.16668980 -.00170484  00000+0 -29561-2 0  9992
2 66564  43.0004 136.2130 0001927 276.2537 215.6654 15.50650662  4208
STARLINK-35893          
1 66565U 25268J   25344.16668980 -.00191127  00000+0 -33220-2 0  9997
2 66565  43.0004 136.2076 0001900 274.7741 219.0589 15.50662190  4258
STARLINK-35871          
1 66566U 25268K   25344.16668980 -.00194996  00000+0 -33907-2 0  9997
2 66566  43.0004 136.2026 0001790 273.0409 222.7110 15.50665565  4254
STARLINK-35825          
1 66567U 25268L   25344.16668980 -.00187604  00000+0 -32594-2 0  9997
2 66567  43.0004 136.1980 0001805 274.5408 223.1294 15.50661119  4254
STARLINK-35803          
1 66568U 25268M   25344.16668980 -.00187332  00000+0 -32547-2 0  9994
2 66568  43.0004 136.1929 0001715 271.9784 227.6099 15.50660386  4253
STARLINK-35835          
1 66569U 25268N   25344.16668980 -.00183419  00000+0 -31851-2 0  9994
2 66569  43.0005 136.1883 0001728 273.7493 227.7531 15.50659219  4250
STARLINK-35834          
1 66570U 25268P   25344.16668980 -.00090419  00000+0 -15525-2 0  9993
2 66570  43.0007 136.1831 0001676 271.0116 232.4356 15.50593035  4253
STARLINK-35836          
1 66571U 25268Q   25344.16668980 -.00171408  00000+0 -29751-2 0  9998
2 66571  43.0008 136.1785 0001812 266.8439 238.5302 15.50626387  4250
STARLINK-35870          
1 66572U 25268R   25344.16668980 -.00215302  00000+0 -37575-2 0  9994
2 66572  43.0004 136.1747 0001688 273.2806 234.0240 15.50640093  4258
STARLINK-35650          
1 66573U 25268S   25344.16668980 -.00149132  00000+0 -25786-2 0  9993
2 66573  43.0008 136.1684 0002404 281.0736 228.1077 15.50644192  4255
STARLINK-35812          
1 66574U 25268T   25344.16668980 -.00144969  00000+0 -25058-2 0  9999
2 66574  43.0005 136.1632 0002073 272.6791 238.4122 15.50637577  4259
